92P/Sanguin,e,19.4443,181.4588,163.7799,5.356657,0.0794993,0.65923413,36.2399,05/30.0/2016,2000,g 12.0,6.0
# From NK 2707
93P/Lovas,e,12.2052,339.6278,74.9070,4.389514,0.1071715,0.61271766,330.4786,05/30.0/2016,2000,g  9.5,6.0
# From MPC 84320
94P/Russell,e,6.1857,70.8876,92.7818,3.509660,0.1499017,0.36462153,337.4074,05/30.0/2016,2000,g  9.0,6.0
# From MPC 75717
95P/Chiron,e,6.9464,209.2211,339.5137,13.63870,0.0195679,0.38272608,144.8009,05/30.0/2016,2000,g  6.3,2.0
# From NK 2733
96P/Machholz,e,58.1791,94.2781,14.7866,3.034453,0.1864590,0.95918510,263.7938,05/30.0/2016,2000,g 13.0,4.8
# From MPC 77020
97P/Metcalf-Brewington,e,17.8643,185.1859,228.2664,4.799774,0.0937288,0.45700878,163.7214,05/30.0/2016,2000,g  5.5,6.0
# From MPC 83523
98P/Takamizawa,e,10.5467,114.7245,157.8069,3.804770,0.1328041,0.56091956,136.5990,05/30.0/2016,2000,g  9.0,8.0
# From MPC 75718
99P/Kowal,e,4.3392,28.1827,174.3154,6.129457,0.0649488,0.23066656,221.1145,05/30.0/2016,2000,g  4.5,6.0
# From MPC 84321
100P/Hartley,e,25.5895,37.7252,181.8630,3.427628,0.1553150,0.41342412,9.0041,05/30.0/2016,2000,g  9.0,8.0
# From MPC 75718
101P/Chernykh,e,5.0488,116.2545,277.6831,5.790517,0.0707340,0.59513350,266.4326,05/30.0/2016,2000,g 10.0,4.8
# From MPC 86232
102P/Shoemaker,e,26.1973,339.7535,20.5409,3.790789,0.1335395,0.46425215,134.0946,05/30.0/2016,2000,g  6.5,8.0
# From NK 2714
103P/Hartley,e,13.5942,219.7290,181.3106,3.476706,0.1520380,0.69344202,310.5103,05/30.0/2016,2000,g  8.5,8.0
# From MPC 10028
104P/Kowal,e,10.2560,235.4400,200.6684,3.262050,0.1672893,0.63851652,10.5127,05/30.0/2016,2000,g 16.0,4.0
# From MPC 94676
105P/Singer Brewster,e,9.1765,192.4309,46.5158,3.466418,0.1527154,0.40987682,237.4173,05/30.0/2016,2000,g 11.5,6.0
# From MPC 92276
106P/Schuster,e,20.2092,50.2973,355.9822,3.752604,0.1355829,0.58970913,92.1244,05/30.0/2016,2000,g 14.0,4.8
# From MPC 94676
107P/Wilson-Harrington,e,2.7702,268.3530,93.5557,2.636534,0.2302258,0.62864122,193.4589,05/30.0/2016,2000,g 16.0,2.0
# From MPC 89313
108P/Ciffreo,e,13.1363,53.3703,358.2500,3.741443,0.1361900,0.54497659,80.2074,05/30.0/2016,2000,g  8.0,12.0
# From ICA 105, 420
109P/Swift-Tuttle,e,113.0420,139.7993,153.0949,26.11807,0.0073840,0.96375396,63.3166,05/30.0/2016,2000,g  4.5,6.0
# From MPC 91618
110P/Hartley,e,11.6829,287.6134,167.5910,3.610201,0.1436835,0.31538099,76.1325,05/30.0/2016,2000,g  1.0,12.0
# From MPC 75718
111P/Helin-Roman-Crockett,e,4.2284,89.7677,1.9130,4.139140,0.1170412,0.10551763,143.5558,05/30.0/2016,2000,g  5.0,8.0
# From MPC 69910
112P/Urata-Niijima,e,24.2046,31.9097,21.3782,3.530036,0.1486057,0.58782641,159.2037,05/30.0/2016,2000,g 14.0,6.0
# From MPC 92984
113P/Spitaler,e,5.7778,14.3676,50.1563,3.688521,0.1391316,0.42543704,55.9022,05/30.0/2016,2000,g 13.5,4.0
# From MPC 82722
114P/Wiseman-Skiff,e,18.2794,271.0630,172.8725,3.543977,0.1477297,0.55470632,164.3638,05/30.0/2016,2000,g 11.5,6.0
# From MPC 76027
115P/Maury,e,11.6716,176.0473,121.0730,4.271735,0.1116343,0.51772065,189.9171,05/30.0/2016,2000,g 10.5,6.0
# From MPC 98565
116P/Wild,e,3.6086,20.9888,173.3096,3.483955,0.1515637,0.37224095,21.1412,05/30.0/2016,2000,g  2.5,10.0
# From MPC 95735
117P/Helin-Roman-Alu,e,8.6992,58.8747,222.5560,4.094389,0.1189653,0.25409506,94.6184,05/30.0/2016,2000,g  2.5,8.0
# From MPC 95735
118P/Shoemaker-Levy,e,8.5143,151.7267,302.3341,3.462227,0.1529927,0.42809718,357.2525,05/30.0/2016,2000,g 12.0,4.0
# From MPC 84628
119P/Parker-Hartley,e,5.2201,242.5104,182.3544,4.284807,0.1111238,0.29959973,87.4610,05/30.0/2016,2000,g  3.5,8.0
# From MPC 80901
120P/Mueller,e,8.8888,3.8759,29.0229,4.096863,0.1188576,0.34859792,141.6276,05/30.0/2016,2000,g 12.0,4.0
# From MPC 10028
121P/Shoemaker-Holt,e,20.1543,94.1496,11.5925,4.593977,0.1000970,0.18333878,100.3100,05/30.0/2016,2000,g  6.5,8.0
# From MPC 75718
122P/de Vico,e,85.1136,79.5718,13.0450,17.66471,0.0132753,0.96263444,100.0276,05/30.0/2016,2000,g  7.5,5.2
# From MPC 79345
123P/West-Hartley,e,15.3568,46.5111,102.9549,3.860320,0.1299478,0.44922220,232.5678,05/30.0/2016,2000,g  4.0,10.0
# From MPC 87068
124P/Mrkos,e,31.5327,0.4021,183.7766,3.318378,0.1630479,0.50400400,127.3732,05/30.0/2016,2000,g 13.5,2.8
# From MPC 94676
125P/Spacewatch,e,9.9881,153.1931,87.1456,3.125046,0.1784101,0.51301019,213.6699,05/30.0/2016,2000,g 13.0,6.0
# From MPC 66205
126P/IRAS,e,45.7815,357.8187,356.6296,5.641677,0.0735515,0.69515610,168.7661,05/30.0/2016,2000,g  6.0,8.0
# From MPC 84321
127P/Holt-Olmstead,e,14.3027,13.6496,6.6989,3.449977,0.1538083,0.36060621,11.2608,05/30.0/2016,2000,g 11.0,6.0
# From MPC 75719
128P-B/Shoemaker-Holt,e,4.3642,214.2923,210.5802,4.502977,0.1031465,0.32137857,336.7116,05/30.0/2016,2000,g  8.5,4.0
# From MPC 10028
129P/Shoemaker-Levy,e,3.4443,184.8986,308.9186,4.276464,0.1114492,0.08483266,94.0335,05/30.0/2016,2000,g 11.0,4.0
# From MPC 78188
130P/McNaught-Hughes,e,6.0465,70.6182,245.2195,3.393828,0.1576411,0.46211535,265.3596,05/30.0/2016,2000,g 10.0,6.0
# From MPC 76027
131P/Mueller,e,7.3545,214.1966,179.1403,3.678894,0.1396780,0.34276999,224.5459,05/30.0/2016,2000,g 11.0,4.0
# From MPC 92985
132P/Helin-Roman-Alu,e,5.9331,178.1397,220.8649,4.076718,0.1197397,0.54172246,87.8484,05/30.0/2016,2000,g 11.0,6.0
# From MPC 94676
133P/Elst-Pizarro,e,1.3876,160.1300,131.9179,3.161015,0.1753736,0.16027189,211.9831,05/30.0/2016,2000,g 15.4,2.0
# From MPC 89012
134P/Kowal-Vavrova,e,4.3493,202.0909,18.6515,6.241304,0.0632108,0.58798118,46.7291,05/30.0/2016,2000,g 11.5,4.0
# From MPC 92985
135P/Shoemaker-Levy,e,6.0620,213.0842,22.0103,3.804103,0.1328390,0.29557149,76.4037,05/30.0/2016,2000,g  7.0,8.0
# From MPC 84321
136P/Mueller,e,9.4157,137.4518,225.1685,4.203267,0.1143730,0.29123249,359.8627,05/30.0/2016,2000,g 11.0,4.0
# From MPC 75719
137P/Shoemaker-Levy,e,4.8505,233.0734,140.9673,4.518645,0.1026105,0.57209893,264.7915,05/30.0/2016,2000,g 11.0,4.0
# From MPC 65938
138P/Shoemaker-Levy,e,10.0845,309.3689,95.5935,3.622438,0.1429561,0.52955386,207.2772,05/30.0/2016,2000,g 15.0,6.0
# From MPC 89012
139P/Vaisala-Oterma,e,2.3324,242.2340,166.1428,4.529504,0.1022417,0.24639884,302.6994,05/30.0/2016,2000,g  9.5,4.0
# From MPC 92985
140P/Bowell-Skiff,e,3.8211,343.3918,172.9241,6.446873,0.0602116,0.69167933,17.7882,05/30.0/2016,2000,g 11.5,6.0
# From MPC 94284
141P/Machholz,e,12.8126,245.9414,149.5787,3.023640,0.1874601,0.74834197,52.2849,05/30.0/2016,2000,g 12.0,12.0
# From MPC 71683
142P/Ge-Wang,e,12.3612,176.4711,175.0960,4.948153,0.0895446,0.50024954,197.0300,05/30.0/2016,2000,g  8.5,6.0
# From MPC 94676
143P/Kowal-Mrkos,e,4.6947,245.3064,320.8435,4.294067,0.1107646,0.40996979,281.6454,05/30.0/2016,2000,g 13.5,2.0
# From MPC 84321
144P/Kushida,e,4.1149,245.4899,216.1489,3.857226,0.1301042,0.62889499,347.9043,05/30.0/2016,2000,g  8.5,8.0
# From MPC 75720
145P/Shoemaker-Levy,e,11.2599,26.8144,10.3998,4.144544,0.1168124,0.54070412,306.3863,05/30.0/2016,2000,g 13.5,4.0
# From MPC 10028
146P/Shoemaker-LINEAR,e,23.0725,53.4546,316.9785,4.040251,0.1213645,0.64603956,356.2220,05/30.0/2016,2000,g 15.0,4.0
# From MPC 75720
147P/Kushida-Muramatsu,e,2.3690,93.7308,347.0745,3.799851,0.1330620,0.27718384,12.2591,05/30.0/2016,2000,g 14.0,4.0
# From MPC 89730
148P/Anderson-LINEAR,e,3.6821,89.7484,6.6678,3.673860,0.1399652,0.53976847,49.1648,05/30.0/2016,2000,g 16.0,2.0
# From MPC 75720
149P/Mueller,e,29.7647,145.2606,43.6205,4.320854,0.1097361,0.38981642,251.0788,05/30.0/2016,2000,g  8.0,8.0
# From MPC 75720
150P/LONEOS,e,18.5066,272.4289,245.6785,3.883626,0.1287799,0.54689289,352.7957,05/30.0/2016,2000,g 13.5,4.0
# From MPC 95214
151P/Helin,e,4.7196,143.1540,216.2516,5.779467,0.0709369,0.57199629,16.6685,05/30.0/2016,2000,g 10.0,6.0
# From MPC 79346
152P/Helin-Lawrence,e,9.8712,91.8785,163.5288,4.490501,0.1035766,0.30783158,147.2001,05/30.0/2016,2000,g 11.5,4.0
# From MPC 46101
153P/Ikeya-Zhang,e,28.0488,93.3542,34.7217,51.23052,0.0026879,0.99012586,0.0000,03/22.6640/2002,2000,g  7.0,4.0
# From MPC 87068
154P/Brewington,e,17.8625,343.3755,47.9856,4.825973,0.0929666,0.67594123,83.5221,05/30.0/2016,2000,g  2.5,12.0
# From MPC 75720
155P/Shoemaker,e,6.3997,97.2544,14.7132,6.583742,0.0583438,0.72710137,286.2734,05/30.0/2016,2000,g 10.0,4.8
# From MPC 92985
156P/Russell-LINEAR,e,20.8858,38.6695,357.8875,3.589434,0.1449322,0.56118925,112.1228,05/30.0/2016,2000,g 15.5,2.0
# From MPC 95214
157P/Tritton,e,7.2850,299.9995,148.8910,3.408169,0.1566471,0.60152035,358.2214,05/30.0/2016,2000,g 10.0,4.0
# From MPC 10028
158P/Kowal-LINEAR,e,7.9043,137.2752,241.0315,4.741472,0.0954628,0.02975752,120.5680,05/30.0/2016,2000,g  9.0,4.0
# From MPC 75721
159P/LONEOS,e,23.4598,55.0384,4.8498,5.861192,0.0694585,0.38178815,309.7623,05/30.0/2016,2000,g 10.0,4.0
# From MPC 80901
160P/LINEAR,e,16.3198,334.8720,12.0353,3.741183,0.1362043,0.53700788,186.1277,05/30.0/2016,2000,g 15.5,2.0
# From MPC 75721
161P/Hartley-IRAS,e,95.5775,1.2302,46.9540,7.720901,0.0459412,0.83553988,183.7503,05/30.0/2016,2000,g  8.5,6.0
# From MPC 92985
162P/Siding Spring,e,27.7901,31.1941,356.4676,3.057731,0.1843339,0.59514003,59.5359,05/30.0/2016,2000,g 12.0,4.0
# From MPC 78188
163P/NEAT,e,12.7145,102.1108,349.8020,3.767200,0.1347957,0.45240880,203.3500,05/30.0/2016,2000,g 14.5,4.0
# From MPC 94676
164P/Christensen,e,16.2569,88.3132,325.9794,3.659133,0.1408111,0.53972189,257.0002,05/30.0/2016,2000,g 11.0,4.0
# From MPC 75721
165P/LINEAR,e,15.9043,0.5078,126.3849,17.90090,0.0130134,0.61790400,75.8274,05/30.0/2016,2000,g 11.5,2.0
# From MPC 75722
166P/NEAT,e,15.3603,64.4857,322.1377,13.89667,0.0190256,0.37962999,97.6890,05/30.0/2016,2000,g  5.5,4.0
# From MPC 75722
167P/CINEOS,e,19.1042,295.8336,343.4938,16.14932,0.0151870,0.27163577,84.0505,05/30.0/2016,2000,g  9.5,2.0
# From MPC 82322
168P/Hergenrother,e,22.0105,356.4062,13.6811,3.608731,0.1437713,0.61291332,191.9387,05/30.0/2016,2000,g 15.5,4.0
# From MPC 94676
169P/NEAT,e,11.2990,176.1229,218.0073,2.604000,0.2345539,0.76721189,195.8046,05/30.0/2016,2000,g 16.0,2.0
# From MPC 89012
